[{"OBJECT_NAME":"KL-BETA B","OBJECT_ID":"2021-070B","EPOCH":"2026-03-09T22:27:50.032800","MEAN_MOTION":13.94701565,"ECCENTRICITY":0.00070924,"INCLINATION":88.9968,"RA_OF_ASC_NODE":229.226,"ARG_OF_PERICENTER":75.7139,"MEAN_ANOMALY":284.4824,"EPHEMERIS_TYPE":0,"CLASSIFICATION_TYPE":"U","NORAD_CAT_ID":49060,"ELEMENT_SET_NO":999,"REV_AT_EPOCH":23413,"BSTAR":4.5437163e-5,"MEAN_MOTION_DOT":7.4e-7,"MEAN_MOTION_DDOT":0},{"OBJECT_NAME":"DELTA 1 DEB","OBJECT_ID":"1978-026U","EPOCH":"2026-03-09T18:47:08.944224","MEAN_MOTION":14.08207192,"ECCENTRICITY":0.0164493,"INCLINATION":99.1663,"RA_OF_ASC_NODE":10.6816,"ARG_OF_PERICENTER":54.0905,"MEAN_ANOMALY":16.5284,"EPHEMERIS_TYPE":0,"CLASSIFICATION_TYPE":"U","NORAD_CAT_ID":12179,"ELEMENT_SET_NO":999,"REV_AT_EPOCH":29993,"BSTAR":0.00076717277,"MEAN_MOTION_DOT":1.437e-5,"MEAN_MOTION_DDOT":0}]
